NORAD_CAT_ID,OBJECT_NAME,OBJECT_TYPE,EPOCH,MEAN_MOTION,ECCENTRICITY,INCLINATION,RA_OF_ASC_NODE,ARG_OF_PERICENTER,MEAN_ANOMALY,BSTAR,MEAN_MOTION_DOT,MEAN_MOTION_DDOT,TLE_LINE0,TLE_LINE1,TLE_LINE2,SEMIMAJOR_AXIS,PERIOD,APOGEE,PERIGEE,DECAYED
53285.0,STARLINK-4173,PAYLOAD,2023-02-14 14:22:55,15.08843909,0.0001149,53.2182,167.9127,91.8671,268.2453,0.00023155,3.4e-05,0.0,0 STARLINK-4173,1 53285U 22086AV  23045.59925454  .00003400  00000-0  23155-3 0  9994,2 53285  53.2182 167.9127 0001149  91.8671 268.2453 15.08843909 32244,6917.868,95.437,540.528,538.939,0.0
53285.0,STARLINK-4173,PAYLOAD,2023-02-14 17:33:41,15.08852624,0.0001644,53.2173,167.3188,80.665,279.4528,0.00034208,5.162e-05,0.0,0 STARLINK-4173,1 53285U 22086AV  23045.73173249  .00005162  00000-0  34208-3 0  9995,2 53285  53.2173 167.3188 0001644  80.6650 279.4528 15.08852624 32104,6917.842,95.437,540.844,538.57,0.0
53285.0,STARLINK-4173,PAYLOAD,2023-02-15 01:30:37,15.08845257,0.0001732,53.2173,165.8333,79.7834,280.3354,0.00018703,2.69e-05,0.0,0 STARLINK-4173,1 53285U 22086AV  23046.06293417  .00002690  00000-0  18703-3 0  9997,2 53285  53.2173 165.8333 0001732  79.7834 280.3354 15.08845257 32157,6917.864,95.437,540.927,538.531,0.0
53285.0,STARLINK-4173,PAYLOAD,2023-02-15 14:13:42,15.08853835,0.0001418,53.2179,163.4514,105.6837,254.4312,0.00034252,5.169e-05,0.0,0 STARLINK-4173,1 53285U 22086AV  23046.59284934  .00005169  00000-0  34252-3 0  9990,2 53285  53.2179 163.4514 0001418 105.6837 254.4312 15.08853835 32394,6917.838,95.437,540.684,538.722,0.0
53285.0,STARLINK-4173,PAYLOAD,2023-02-15 18:59:50,15.0887288,0.0001664,53.2157,162.5612,90.0666,270.0517,0.00061824,9.574e-05,0.0,0 STARLINK-4173,1 53285U 22086AV  23046.79156017  .00009574  00000-0  61824-3 0  9991,2 53285  53.2157 162.5612 0001664  90.0666 270.0517 15.08872880 32267,6917.78,95.435,540.796,538.494,0.0
53285.0,STARLINK-4173,PAYLOAD,2023-02-16 14:04:28,15.08854925,0.0001492,53.2169,158.9932,72.2818,287.8337,0.00028035,4.178e-05,0.0,0 STARLINK-4173,1 53285U 22086AV  23047.58644617  .00004178  00000-0  28035-3 0  9999,2 53285  53.2169 158.9932 0001492  72.2818 287.8337 15.08854925 32383,6917.835,95.437,540.732,538.668,0.0
53285.0,STARLINK-4173,PAYLOAD,2023-02-16 18:50:37,15.08875499,0.0001555,53.2167,158.1011,66.2805,293.835,0.00068844,0.00010696,0.0,0 STARLINK-4173,1 53285U 22086AV  23047.78515537  .00010696  00000-0  68844-3 0  9993,2 53285  53.2167 158.1011 0001555  66.2805 293.8350 15.08875499 32415,6917.772,95.435,540.713,538.561,0.0
53285.0,STARLINK-4173,PAYLOAD,2023-02-17 13:55:16,15.0883023,0.0001717,53.2177,154.5336,108.5306,251.5872,-0.00013855,-2.492e-05,0.0,0 STARLINK-4173,1 53285U 22086AV  23048.58005424 -.00002492  00000-0 -13855-3 0  9990,2 53285  53.2177 154.5336 0001717 108.5306 251.5872 15.08830230 32539,6917.91,95.438,540.963,538.587,0.0
53285.0,STARLINK-4173,PAYLOAD,2023-02-17 18:41:25,15.08848337,0.0001019,53.2176,153.6405,61.6942,298.4153,0.00035158,5.313e-05,0.0,0 STARLINK-4173,1 53285U 22086AV  23048.77877173  .00005313  00000-0  35158-3 0  9992,2 53285  53.2176 153.6405 0001019  61.6942 298.4153 15.08848337 32725,6917.855,95.437,540.425,539.015,0.0
53285.0,STARLINK-4173,PAYLOAD,2023-02-18 02:38:22,15.0880963,0.0001107,53.2178,152.156,56.1883,303.9214,-0.00038518,-6.407e-05,0.0,0 STARLINK-4173,1 53285U 22086AV  23049.10998477 -.00006407  00000-0 -38518-3 0  9991,2 53285  53.2178 152.1560 0001107  56.1883 303.9214 15.08809630 32615,6917.973,95.439,540.604,539.072,0.0
53285.0,STARLINK-4173,PAYLOAD,2023-02-18 13:46:04,15.08832234,8.81e-05,53.2181,150.074,58.5827,301.5252,0.00073464,0.00011421,0.0,0 STARLINK-4173,1 53285U 22086AV  23049.57366770  .00011421  00000-0  73464-3 0  9996,2 53285  53.2181 150.0740 0000881  58.5827 301.5252 15.08832234 32845,6917.904,95.438,540.379,539.16,0.0
53285.0,STARLINK-4173,PAYLOAD,2023-02-19 13:36:51,15.08862125,9.16e-05,53.2178,145.6143,56.9044,303.2036,0.0012321,0.00019387,0.0,0 STARLINK-4173,1 53285U 22086AV  23050.56726532  .00019387  00000-0  12321-2 0  9996,2 53285  53.2178 145.6143 0000916  56.9044 303.2036 15.08862125 32997,6917.813,95.436,540.311,539.044,0.0
53285.0,STARLINK-4173,PAYLOAD,2023-02-19 15:12:14,15.08868022,9.53e-05,53.2178,145.317,56.5758,303.5325,0.0014487,0.00022861,0.0,0 STARLINK-4173,1 53285U 22086AV  23050.63350395  .00022861  00000-0  14487-2 0  9990,2 53285  53.2178 145.3170 0000953  56.5758 303.5325 15.08868022 32843,6917.795,95.436,540.319,539.0,0.0
53285.0,STARLINK-4173,PAYLOAD,2023-02-19 23:09:10,15.08849677,8.13e-05,53.2176,143.829,78.5681,281.5403,0.00068263,0.00010596,0.0,0 STARLINK-4173,1 53285U 22086AV  23050.96470434  .00010596  00000-0  68263-3 0  9997,2 53285  53.2176 143.8290 0000813  78.5681 281.5403 15.08849677 32893,6917.851,95.437,540.278,539.153,0.0
53285.0,STARLINK-4173,PAYLOAD,2023-02-20 13:27:38,15.08843021,0.0001295,53.2168,141.1545,78.7629,281.3509,0.0010066,0.0001577,0.0,0 STARLINK-4173,1 53285U 22086AV  23051.56086778  .00015770  00000-0  10066-2 0  9994,2 53285  53.2168 141.1545 0001295  78.7629 281.3509 15.08843021 32989,6917.871,95.437,540.632,538.84,0.0
53285.0,STARLINK-4173,PAYLOAD,2023-02-21 13:18:25,15.0886502,0.0001086,53.2174,136.6926,89.4852,270.6265,0.00061107,9.457e-05,0.0,0 STARLINK-4173,1 53285U 22086AV  23052.55445783  .00009457  00000-0  61107-3 0  9997,2 53285  53.2174 136.6926 0001086  89.4852 270.6265 15.08865020 33291,6917.804,95.436,540.42,538.918,0.0
53285.0,STARLINK-4173,PAYLOAD,2023-02-21 18:04:34,15.08871512,0.0001189,53.2168,135.7965,111.6845,248.4274,0.00094505,0.00014797,0.0,0 STARLINK-4173,1 53285U 22086AV  23052.75317382  .00014797  00000-0  94505-3 0  9993,2 53285  53.2168 135.7965 0001189 111.6845 248.4274 15.08871512 33163,6917.784,95.436,540.472,538.827,0.0
53285.0,STARLINK-4173,PAYLOAD,2023-02-21 22:50:43,15.08839173,6.71e-05,53.2172,134.9086,120.4426,239.6633,-0.00046316,-7.651e-05,0.0,0 STARLINK-4173,1 53285U 22086AV  23052.95189783 -.00007651  00000-0 -46316-3 0  9997,2 53285  53.2172 134.9086 0000671 120.4426 239.6633 15.08839173 33192,6917.883,95.438,540.212,539.284,0.0
53285.0,STARLINK-4173,PAYLOAD,2023-02-22 11:33:48,15.08856566,0.0001173,53.2167,132.5294,97.2363,262.8762,0.0009286,0.00014528,0.0,0 STARLINK-4173,1 53285U 22086AV  23053.48181554  .00014528  00000-0  92860-3 0  9998,2 53285  53.2167 132.5294 0001173  97.2363 262.8762 15.08856566 33275,6917.83,95.437,540.506,538.883,0.0
53285.0,STARLINK-4173,PAYLOAD,2023-02-22 16:19:58,15.08862338,0.0001183,53.2166,131.6373,104.6894,255.423,0.0018984,0.00030073,0.0,0 STARLINK-4173,1 53285U 22086AV  23053.68053430  .00030073  00000-0  18984-2 0  9998,2 53285  53.2166 131.6373 0001183 104.6894 255.4230 15.08862338 33468,6917.812,95.436,540.495,538.859,0.0
53285.0,STARLINK-4173,PAYLOAD,2023-02-23 05:03:03,15.08844436,0.0001676,53.2165,129.2577,107.1423,252.9753,0.0016579,0.00026199,0.0,0 STARLINK-4173,1 53285U 22086AV  23054.21046250  .00026199  00000-0  16579-2 0  9992,2 53285  53.2165 129.2577 0001676 107.1423 252.9753 15.08844436 33381,6917.867,95.437,540.891,538.572,0.0
53285.0,STARLINK-4173,PAYLOAD,2023-02-23 11:24:36,15.08838865,0.000136,53.2172,128.0688,101.3778,258.7367,0.0014663,0.00023124,0.0,0 STARLINK-4173,1 53285U 22086AV  23054.47542387  .00023124  00000-0  14663-2 0  9999,2 53285  53.2172 128.0688 0001360 101.3778 258.7367 15.08838865 33427,6917.884,95.438,540.69,538.808,0.0
53285.0,STARLINK-4173,PAYLOAD,2023-02-23 16:10:45,15.08843835,0.0001404,53.2169,127.1759,101.4809,258.6341,0.0011978,0.00018828,0.0,0 STARLINK-4173,1 53285U 22086AV  23054.67414337  .00018828  00000-0  11978-2 0  9995,2 53285  53.2169 127.1759 0001404 101.4809 258.6341 15.08843835 33612,6917.869,95.437,540.705,538.762,0.0
53285.0,STARLINK-4173,PAYLOAD,2023-02-24 11:15:23,15.08853874,0.0001506,53.2173,123.6064,103.4394,256.6766,0.00061868,9.576e-05,0.0,0 STARLINK-4173,1 53285U 22086AV  23055.46901987  .00009576  00000-0  61868-3 0  9999,2 53285  53.2173 123.6064 0001506 103.4394 256.6766 15.08853874 33737,6917.838,95.437,540.745,538.661,0.0
53285.0,STARLINK-4173,PAYLOAD,2023-02-24 16:01:32,15.08864648,0.0001555,53.2173,122.7132,108.1647,251.9514,0.00082592,0.0001289,0.0,0 STARLINK-4173,1 53285U 22086AV  23055.66773554  .00012890  00000-0  82592-3 0  9998,2 53285  53.2173 122.7132 0001555 108.1647 251.9514 15.08864648 33763,6917.805,95.436,540.746,538.594,0.0
53285.0,STARLINK-4173,PAYLOAD,2023-02-25 04:44:38,15.08820957,0.0001437,53.2174,120.3355,111.6718,248.4428,-0.00048196,-7.946e-05,0.0,0 STARLINK-4173,1 53285U 22086AV  23056.19766680 -.00007946  00000-0 -48196-3 0  9999,2 53285  53.2174 120.3355 0001437 111.6718 248.4428 15.08820957 33683,6917.939,95.439,540.798,538.809,0.0
53285.0,STARLINK-4173,PAYLOAD,2023-02-25 14:16:57,15.08822242,0.0001839,53.217,118.5501,120.3255,239.7919,0.00029409,4.393e-05,0.0,0 STARLINK-4173,1 53285U 22086AV  23056.59511250  .00004393  00000-0  29409-3 0  9991,2 53285  53.2170 118.5501 0001839 120.3255 239.7919 15.08822242 33902,6917.935,95.439,541.072,538.527,0.0
53285.0,STARLINK-4173,PAYLOAD,2023-02-25 15:52:20,15.08829787,0.0001662,53.2171,118.2547,118.026,242.09,0.00069606,0.00010804,0.0,0 STARLINK-4173,1 53285U 22086AV  23056.66135216  .00010804  00000-0  69606-3 0  9990,2 53285  53.2171 118.2547 0001662 118.0260 242.0900 15.08829787 33755,6917.912,95.438,540.926,538.627,0.0
53285.0,STARLINK-4173,PAYLOAD,2023-02-26 09:21:34,15.08866772,0.0001495,53.2166,114.9848,116.7599,243.3546,0.0015803,0.0002497,0.0,0 STARLINK-4173,1 53285U 22086AV  23057.38998811  .00024970  00000-0  15803-2 0  9996,2 53285  53.2166 114.9848 0001495 116.7599 243.3546 15.08866772 33867,6917.799,95.436,540.698,538.629,0.0
53285.0,STARLINK-4173,PAYLOAD,2023-02-26 12:32:21,15.08875513,0.0001457,53.2168,114.3903,111.9667,248.148,0.0017244,0.00027289,0.0,0 STARLINK-4173,1 53285U 22086AV  23057.52246536  .00027289  00000-0  17244-2 0  9999,2 53285  53.2168 114.3903 0001457 111.9667 248.1480 15.08875513 34040,6917.772,95.435,540.645,538.629,0.0
